*******************************************************************************
JPL/HORIZONS                  111 Ate (A870 PA)            2020-Jun-20 08:15:21
Rec #:     111 (+COV) Soln.date: 2020-May-20_00:58:46   # obs: 2707 (1870-2020)
 
IAU76/J2000 helio. ecliptic osc. elements (au, days, deg., period=Julian yrs):
 
  EPOCH=  2454838.5 ! 2009-Jan-07.00 (TDB)         Residual RMS= .31317
   EC= .1022066447702176   QR= 2.328349359786341   TP= 2455270.0066785882
   OM= 305.7971476144153   W=  167.1076496321562   IN= 4.931385144309675
   A= 2.593413446672726    MA= 258.1680739059097   ADIST= 2.858477533559111
   PER= 4.17653            N= .235991535           ANGMOM= .027557323
   DAN= 2.8503             DDN= 2.3338             L= 112.950934
   B= 1.0989996            MOID= 1.34513998        TP= 2010-Mar-14.5066785882
 
Asteroid physical parameters (km, seconds, rotational period in hours):
   GM= n.a.                RAD= 63.172             ROTPER= 22.072
   H= 8.2                  G= .150                 B-V= .690
                           ALBEDO= .062            STYP= Ch
 
ASTEROID comments: 
1: soln ref.= JPL#102, OCC=0
2: source=ORB
*******************************************************************************
 
 
*******************************************************************************
Ephemeris / WWW_USER Sat Jun 20 08:15:22 2020 Pasadena, USA      / Horizons
*******************************************************************************
Target body name: 111 Ate (A870 PA)               {source: JPL#102}
Center body name: Solar System Barycenter (0)     {source: DE431}
Center-site name: BODY CENTER
*******************************************************************************
Start time      : A.D. 1969-Jun-28 00:00:00.0000 TDB
Stop  time      : A.D. 2071-May-04 00:00:00.0000 TDB
Step-size       : 7200 minutes
*******************************************************************************
Center geodetic : 0.00000000,0.00000000,0.0000000 {E-lon(deg),Lat(deg),Alt(km)}
Center cylindric: 0.00000000,0.00000000,0.0000000 {E-lon(deg),Dxy(km),Dz(km)}
Center radii    : (undefined)                                                  
Small perturbers: Yes                             {source: SB431-N16}
Output units    : AU-D
Output type     : GEOMETRIC cartesian states
Output format   : 2 (position and velocity)
Reference frame : Ecliptic of J2000.0
*******************************************************************************
Initial IAU76/J2000 heliocentric ecliptic osculating elements (au, days, deg.):
  EPOCH=  2454838.5 ! 2009-Jan-07.00 (TDB)         Residual RMS= .31317        
   EC= .1022066447702176   QR= 2.328349359786341   TP= 2455270.0066785882      
   OM= 305.7971476144153   W=  167.1076496321562   IN= 4.931385144309675       
  Equivalent ICRF heliocentric equatorial cartesian coordinates (au, au/d):
   X= 2.666257176835035E+00  Y=-7.959677527233811E-02  Z= 1.685352187107741E-01
  VX=-1.021413501110018E-03 VY= 9.271384798377890E-03 VZ= 4.508277346286641E-03
Asteroid physical parameters (km, seconds, rotational period in hours):        
   GM= n.a.                RAD= 63.172             ROTPER= 22.072              
   H= 8.2                  G= .150                 B-V= .690                   
                           ALBEDO= .062            STYP= Ch                    
*******************************************************************************
            JDTDB,            Calendar Date (TDB),        delta-T,                      X,                      Y,                      Z,                     VX,                     VY,                     VZ,
******************************************************************************************************************************************************************************************************************
$$SOE
2464900.500000000, A.D. 2036-Jul-26 00:00:00.0000,      69.183449, -1.534642229237625E+00, -2.227558478227949E+00, -2.183528253367973E-01,  7.837594228776439E-03, -6.574718610520980E-03,  2.197972027148287E-04,
2464905.500000000, A.D. 2036-Jul-31 00:00:00.0000,      69.183321, -1.495171211173074E+00, -2.260016788874989E+00, -2.172132586100751E-01,  7.950227321916680E-03, -6.408346302886166E-03,  2.360014218426359E-04,
2464910.500000000, A.D. 2036-Aug-05 00:00:00.0000,      69.183197, -1.455145813387068E+00, -2.291639406836548E+00, -2.159930947743224E-01,  8.059346031005964E-03, -6.240453307352058E-03,  2.520354517842899E-04,
2464915.500000000, A.D. 2036-Aug-10 00:00:00.0000,      69.183079, -1.414583608180975E+00, -2.322418904345800E+00, -2.146931935849828E-01,  8.164950384620683E-03, -6.071109714576095E-03,  2.678957903284338E-04,
2464920.500000000, A.D. 2036-Aug-15 00:00:00.0000,      69.182967, -1.373502165042811E+00, -2.352348201416609E+00, -2.133144319879356E-01,  8.267041470614921E-03, -5.900384546946438E-03,  2.835790628555911E-04,
2464925.500000000, A.D. 2036-Aug-20 00:00:00.0000,      69.182865, -1.331919045483035E+00, -2.381420560515135E+00, -2.118577034913809E-01,  8.365621383537683E-03, -5.728345764042526E-03,  2.990820184011643E-04,
2464930.500000000, A.D. 2036-Aug-25 00:00:00.0000,      69.182771, -1.289851798128992E+00, -2.409629581262882E+00, -2.103239175573910E-01,  8.460693173736525E-03, -5.555060269738747E-03,  3.144015257273011E-04,
2464935.500000000, A.D. 2036-Aug-30 00:00:00.0000,      69.182685, -1.247317954069835E+00, -2.436969195179125E+00, -2.087139990130497E-01,  8.552260798054916E-03, -5.380593920821615E-03,  3.295345694204083E-04,
2464940.500000000, A.D. 2036-Sep-04 00:00:00.0000,      69.182608, -1.204335022444038E+00, -2.463433660469851E+00, -2.070288874809925E-01,  8.640329072096570E-03, -5.205011536953755E-03,  3.444782460357452E-04,
2464945.500000000, A.D. 2036-Sep-09 00:00:00.0000,      69.182540, -1.160920486261642E+00, -2.489017556869576E+00, -2.052695368290739E-01,  8.724903624070114E-03, -5.028376911840134E-03,  3.592297603034032E-04,
2464950.500000000, A.D. 2036-Sep-14 00:00:00.0000,      69.182483, -1.117091798453304E+00, -2.513715780541778E+00, -2.034369146388392E-01,  8.805990850225504E-03, -4.850752825490131E-03,  3.737864214018335E-04,
2464955.500000000, A.D. 2036-Sep-19 00:00:00.0000,      69.182439, -1.072866378138206E+00, -2.537523539043177E+00, -2.015320016924507E-01,  8.883597871870397E-03, -4.672201057479958E-03,  3.881456393033652E-04,
2464960.500000000, A.D. 2036-Sep-24 00:00:00.0000,      69.182407, -1.028261607102961E+00, -2.560436346356566E+00, -1.995557914776856E-01,  8.957732493952738E-03, -4.492782401076471E-03,  4.023049212011768E-04,
2464965.500000000, A.D. 2036-Sep-29 00:00:00.0000,      69.182386, -9.832948264836147E-01, -2.582450017995984E+00, -1.975092897105758E-01,  9.028403165258948E-03, -4.312556678023545E-03,  4.162618680279605E-04,
2464970.500000000, A.D. 2036-Oct-04 00:00:00.0000,      69.182375, -9.379833336423674E-01, -2.603560666187261E+00, -1.953935138752417E-01,  9.095618940342368E-03, -4.131582753910140E-03,  4.300141710525125E-04,
2464975.500000000, A.D. 2036-Oct-09 00:00:00.0000,      69.182376, -8.923443792303212E-01, -2.623764695127254E+00, -1.932094927806345E-01,  9.159389443160193E-03, -3.949918554332995E-03,  4.435596085144765E-04,
2464980.500000000, A.D. 2036-Oct-14 00:00:00.0000,      69.182390, -8.463951644282308E-01, -2.643058796326327E+00, -1.909582661340437E-01,  9.219724832192676E-03, -3.767621082031011E-03,  4.568960422865276E-04,
2464985.500000000, A.D. 2036-Oct-19 00:00:00.0000,      69.182417, -8.001528383583143E-01, -2.661439944038637E+00, -1.886408841311603E-01,  9.276635766893035E-03, -3.584746434823760E-03,  4.700214145955509E-04,
2464990.500000000, A.D. 2036-Oct-24 00:00:00.0000,      69.182457, -7.536344956604915E-01, -2.678905390783583E+00, -1.862584070623288E-01,  9.330133375470026E-03, -3.401349824109653E-03,  4.829337448283652E-04,
2464995.500000000, A.D. 2036-Oct-29 00:00:00.0000,      69.182508, -7.068571742263273E-01, -2.695452662960842E+00, -1.838119049345434E-01,  9.380229224026409E-03, -3.217485593784971E-03,  4.956311264290782E-04,
2465000.500000000, A.D. 2036-Nov-03 00:00:00.0000,      69.182568, -6.598378530839021E-01, -2.711079556560874E+00, -1.813024571087232E-01,  9.426935287046185E-03, -3.033207239499239E-03,  5.081117238892362E-04,
2465005.500000000, A.D. 2036-Nov-08 00:00:00.0000,      69.182639, -6.125934504268788E-01, -2.725784132972371E+00, -1.787311519518119E-01,  9.470263919232998E-03, -2.848567428166028E-03,  5.203737698288741E-04,
2465010.500000000, A.D. 2036-Nov-13 00:00:00.0000,      69.182722, -5.651408217809447E-01, -2.739564714887775E+00, -1.760990865032543E-01,  9.510227828726047E-03, -2.663618017672743E-03,  5.324155621606166E-04,
2465015.500000000, A.D. 2036-Nov-18 00:00:00.0000,      69.182816, -5.174967583006539E-01, -2.752419882307870E+00, -1.734073661554822E-01,  9.546840051728385E-03, -2.478410076811823E-03,  5.442354613200479E-04,
2465020.500000000, A.D. 2036-Nov-23 00:00:00.0000,      69.182919, -4.696779851896444E-01, -2.764348468646721E+00, -1.706571043481089E-01,  9.580113928516508E-03, -2.292993905502343E-03,  5.558318875511065E-04,
2465025.500000000, A.D. 2036-Nov-28 00:00:00.0000,      69.183029, -4.217011602374899E-01, -2.775349556938584E+00, -1.678494222755660E-01,  9.610063080763592E-03, -2.107419055359609E-03,  5.672033182426663E-04,
2465030.500000000, A.D. 2036-Dec-03 00:00:00.0000,      69.183146, -3.735828724668923E-01, -2.785422476148552E+00, -1.649854486079179E-01,  9.636701390061944E-03, -1.921734350617160E-03,  5.783482853257081E-04,
2465035.500000000, A.D. 2036-Dec-08 00:00:00.0000,      69.183269, -3.253396408854007E-01, -2.794566797588570E+00, -1.620663192245089E-01,  9.660042977582483E-03, -1.735987909338304E-03,  5.892653727402611E-04,
